#dP2018  3  2  0  0  0.00000000      96 __u+U ITR00 FIT  IAC
## 1990 432000.00000000   900.00000000 58179 0.0000000000000
+   86   C01C02C04C05C06C07C08C09C10C11C12C13C14E01E02E03E04
+        E05E07E08E09E11E12E14E18E19E24E26E30G01G02G03G04G05
+        G06G07G08G09G10G12G13G14G15G16G17G19G20G21G22G23G24
+        G25G26G27G28G29G30G31G32J01J02J03R01R02R03R04R05R06
+        R07R08R09R10R11R13R14R15R16R17R18R19R20R21R22R23R24
+        R26  0  0  0  0  0  0  0  0  0  0  0  0  0  0  0  0
++         0  0  0  0  0  0  0  0  0  0  0  0  0  0  0  0  0
++         0  0  0  0  0  0  0  0  0  0  0  0  0  0  0  0  0
++         0  0  0  0  0  0  0  0  0  0  0  0  0  0  0  0  0
++         0  0  0  0  0  0  0  0  0  0  0  0  0  0  0  0  0
++         0  0  0  0  0  0  0  0  0  0  0  0  0  0  0  0  0
++         0  0  0  0  0  0  0  0  0  0  0  0  0  0  0  0  0
%c M  cc GPS ccc cccc cccc cccc cccc ccccc ccccc ccccc ccccc
%c cc cc ccc ccc cccc cccc cccc cccc ccccc ccccc ccccc ccccc
%f  0.0000000  0.000000000  0.00000000000  0.000000000000000
%f  0.0000000  0.000000000  0.00000000000  0.000000000000000
%i    0    0    0    0      0      0      0      0         0
%i    0    0    0    0      0      0      0      0         0
/*                                                          
/*   RSA / INFORMATION & ANALYSIS CENTER (IAC) OF MCC       
/*   ULTRA-RAPID DETERMINATION                              
/* PCV:IGS14_1984 OL/AL:FES2004  NONE     YN ORB:CoN CLK:CoN
*  2018 03 02 14 30  0.00000000
PC01      0.000000      0.000000      0.000000 999999.999999
PC02   4375.078339  41945.429071    411.677061   -263.388795
PC04      0.000000      0.000000      0.000000 999999.999999
PC05  21846.103341  36079.352846    407.075737   -158.186332
PC06 -20377.271138  23221.909629 -28611.930099   -679.811775
PC07 -17620.491905  37808.159550  -4280.274140   -330.362442
PC08  -5478.760639  26241.283942  32682.144820    205.859771
PC09  -5135.001179  24566.433575 -33777.791527   -353.775381
PC10  -8025.670896  40385.801295   8289.658030    -53.909953
PC11   2106.731531 -15958.396146 -22724.020359   -411.916797
PC12  20356.467074  -3592.610527 -18728.075197    387.572903
PC13   7661.001770  34756.793450  22808.937861   -229.149717
PC14  13123.314326 -20298.608143  13949.008219    254.259238
PE01  15333.796865 -21961.817834  12592.442076   -288.759164
PE02 -15331.116166  21984.139982 -12579.971876      6.275233
PE03 -23063.673633  14012.542624 -12151.696173     -5.050873
PE04   3793.885367 -17830.347745  23321.881954     13.744896
PE05 -28883.741412   1971.307378   6174.486226    311.920073
PE07  17784.879083  11194.336512 -20843.037931     75.102007
PE08  -3679.541702  17733.262555 -23410.061178   6631.857318
PE09 -17797.312416 -10939.994561  20971.174711   6860.223300
PE11 -20414.519687 -21449.921558    230.034854   1846.022373
PE12  -5834.354088 -23263.760349 -17349.201185   3622.762554
PE14   -615.493426  15145.966953  17845.147809   6622.450121
PE18  -1806.327208 -21579.283031 -24314.475523   6388.581881
PE19  24301.654131 -13173.814625  10575.608042     19.924621
PE24  -9002.074912 -18279.272882 -21475.588929   6834.661031
PE26  22905.141147   7369.386136 -17230.073879   6211.319052
PE30  -4549.931928  28550.379568   6373.876022   6035.139085
PG01 -15226.166297    952.696473  21630.095094    -31.772677
PG02  14204.173013  20794.223385  -8298.118192    185.680164
PG03 -21008.642385   9081.945015  13411.503389     20.082039
PG04   2802.929875 -19824.539013 -17542.698849     41.405991
PG05  12392.663080   9418.447781 -21626.623926    -13.054976
PG06   6479.563045  25636.618935   2403.397154    413.620624
PG07  -8151.852693  17218.767845 -18110.411368    229.077456
PG08 -26211.382911  -4628.469150   1143.976339    -93.000460
PG09 -16036.934436  10180.407277 -18604.918581    504.357156
PG10   7273.900240 -21771.519070  13265.844597    165.926457
PG12  20849.779932  -6635.966830  14730.756992    347.532409
PG13  22471.207849  12596.508679  -6566.876245    -95.592722
PG14 -10941.821439 -16493.304524  18075.662565    -94.641919
PG15  26595.643153   2724.684785   1202.615296   -356.709128
PG16 -11318.710410  -9485.368290 -22237.262231     31.161361
PG17   1569.777842  15562.332656  21871.633400   -119.032813
PG19   9216.693536  16125.788869  18625.625968   -453.584216
PG20  20318.517671  -9569.162594 -14286.704848    502.172166
PG21   4779.701344 -20176.454668 -15787.040215   -424.352428
PG22 -19544.056607   2409.928062  18070.879773   -309.338735
PG23 -24937.456520   1737.657030  -9304.567881   -218.782383
PG24  16665.562351   2265.481430  20499.932238    -46.744940
PG25  19424.692317 -17525.975313   3582.524410   -547.071466
PG26  -2627.467257 -17790.610974 -19506.080321   -232.046215
PG27 -20799.736017 -12319.467669 -11351.227165    368.631487
PG28 -11434.895916  21204.161830  11854.283350    693.437787
PG29  19493.135438  -6203.324587 -16942.961642    488.519226
PG30  -2754.987038  23539.987354 -11838.223926     98.752036
PG31  -6476.328346 -25500.778592   1026.293399    138.187462
PG32  -1819.354151 -15748.836803  21344.608596   -530.441596
PJ01 -34042.452189  24897.535851   3829.259454    -80.299310
PJ02 -19452.432097  28615.113835 -19818.736140     -0.053027
PJ03 -29475.427667  24308.071297  22917.729514    -16.288386
PR01   1796.098732  11224.639763 -22834.310338     22.800510
PR02  19402.043336    510.343237 -16489.696322    297.836938
PR03  23632.295289  -9539.557081   -275.001386    125.581147
PR04  13652.977644 -14032.555607  16355.412161    251.876452
PR05  -3583.591089 -10531.441832  22945.141914   -257.329083
PR06 -20019.915352    227.402005  15810.929028    128.005737
PR07 -23624.181793   9668.938308    -26.570203    -31.443170
PR08 -14280.352187  13974.258705 -15809.960280     38.318964
PR09  -9508.539670  -8443.936353 -22112.269560     45.019629
PR10 -11025.627451  10932.597091 -20237.545527     19.482346
PR11  -6374.508079  23959.466215  -5908.017604    -23.048226
PR13   9573.983843   7539.200491  22386.864102     -8.004133
PR14  11227.433743 -10739.499152  20239.736130     25.112535
PR15   7701.853324 -22334.444095   9484.153281     -7.035022
PR16  -2305.216113 -22897.188422 -10900.892441     86.851186
PR17  16612.956487   1688.340328 -19278.408287    113.397424
PR18   3031.615149 -10912.424998 -22842.075942    186.733026
PR19 -12151.449549 -17841.870975 -13586.841706    -46.154628
PR20 -20734.656004 -14103.063779   4841.869950   -329.145367
PR21 -16392.519798  -1471.320135  19488.047033     27.009518
PR22  -1479.759621  11882.042156  22513.344649    -23.122167
PR23  14875.047708  17821.747136  10564.054445    139.325013
PR24  21019.844443  13325.851277  -5562.954380   -163.133738
PR26 -20950.730542 -13807.442843   4554.153934      2.637256
EOF
